GLOBALSTAR M094         
1 39074U 13005C   25019.86510207 -.00000074  00000+0  16705-3 0  9991
2 39074  51.9955 273.7166 0000714  44.9734 315.1190 12.62267323553641
GLOBALSTAR M096         
1 39075U 13005D   25019.87832989 -.00000072  00000+0  17774-3 0  9992
2 39075  52.0096 322.0742 0000389  22.5821 337.5063 12.62266907552569
GLOBALSTAR M078         
1 39076U 13005E   25020.08885943  .00000019  00000+0  68731-3 0  9995
2 39076  51.9883  46.1386 0000967 190.7181 169.3665 12.62269853551425
GLOBALSTAR M095         
1 39077U 13005F   25020.43241164 -.00000093  00000+0  61678-4 0  9993
2 39077  51.9811  42.3655 0000435 214.9955 145.0883 12.62265572551474
GLOBALSTAR M087         
1 52888U 22064A   25020.46758563 -.00000087  00000+0  95156-4 0  9993
2 52888  51.9766 183.6977 0004202  65.1245 295.0060 12.65662719126386
